{
  "links" : {
    "next" : "https://api.nasa.gov/neo/rest/v1/feed?start_date=2002-01-23&end_date=2002-01-23&detailed=true&api_key=t0TVs3DtDT2H8Oy2Zy8m2eVrNsAVKAexjcZXUckd",
    "prev" : "https://api.nasa.gov/neo/rest/v1/feed?start_date=2002-01-21&end_date=2002-01-21&detailed=true&api_key=t0TVs3DtDT2H8Oy2Zy8m2eVrNsAVKAexjcZXUckd",
    "self" : "https://api.nasa.gov/neo/rest/v1/feed?start_date=2002-01-22&end_date=2002-01-22&detailed=true&api_key=t0TVs3DtDT2H8Oy2Zy8m2eVrNsAVKAexjcZXUckd"
  },
  "element_count" : 6,
  "near_earth_objects" : {
    "2002-01-22" : [ {
      "links" : {
        "self" : "https://api.nasa.gov/neo/rest/v1/neo/2004660?api_key=t0TVs3DtDT2H8Oy2Zy8m2eVrNsAVKAexjcZXUckd"
      },
      "neo_reference_id" : "2004660",
      "name" : "4660 Nereus (1982 DB)",
      "nasa_jpl_url" : "http://ssd.jpl.nasa.gov/sbdb.cgi?sstr=2004660",
      "absolute_magnitude_h" : 18.2,
      "estimated_diameter" : {
        "kilometers" : {
          "estimated_diameter_min" : 0.6089126221,
          "estimated_diameter_max" : 1.3615700154
        },
        "meters" : {
          "estimated_diameter_min" : 608.9126221057,
          "estimated_diameter_max" : 1361.5700153859
        },
        "miles" : {
          "estimated_diameter_min" : 0.3783606449,
          "estimated_diameter_max" : 0.846040122
        },
        "feet" : {
          "estimated_diameter_min" : 1997.7448871092,
          "estimated_diameter_max" : 4467.0933692788
        }
      },
      "is_potentially_hazardous_asteroid" : true,
      "close_approach_data" : [ {
        "close_approach_date" : "2002-01-22",
        "epoch_date_close_approach" : 1011686400000,
        "relative_velocity" : {
          "kilometers_per_second" : "5.4188485375",
          "kilometers_per_hour" : "19507.8547349629",
          "miles_per_hour" : "12121.4222935107"
        },
        "miss_distance" : {
          "astronomical" : "0.0290239466",
          "lunar" : "11.2903156281",
          "kilometers" : "4341920.5",
          "miles" : "2697944.5"
        },
        "orbiting_body" : "Earth"
      } ],
      "orbital_data" : {
        "orbit_id" : "105",
        "orbit_determination_date" : "2017-07-27 06:21:49",
        "orbit_uncertainty" : "0",
        "minimum_orbit_intersection" : ".00290752",
        "jupiter_tisserand_invariant" : "4.493",
        "epoch_osculation" : "2458000.5",
        "eccentricity" : ".3600073024231731",
        "semi_major_axis" : "1.488684198998776",
        "inclination" : "1.431697832801353",
        "ascending_node_longitude" : "314.4434169545978",
        "orbital_period" : "663.4409817098345",
        "perihelion_distance" : ".9527470163572247",
        "perihelion_argument" : "158.0200614561001",
        "aphelion_distance" : "2.024621381640328",
        "perihelion_time" : "2458259.655366065614",
        "mean_anomaly" : "219.3756877315948",
        "mean_motion" : ".5426255084095049",
        "equinox" : "J2000"
      }
    }, {
      "links" : {
        "self" : "https://api.nasa.gov/neo/rest/v1/neo/2416002?api_key=t0TVs3DtDT2H8Oy2Zy8m2eVrNsAVKAexjcZXUckd"
      },
      "neo_reference_id" : "2416002",
      "name" : "416002 (2002 BN)",
      "nasa_jpl_url" : "http://ssd.jpl.nasa.gov/sbdb.cgi?sstr=2416002",
      "absolute_magnitude_h" : 20.5,
      "estimated_diameter" : {
        "kilometers" : {
          "estimated_diameter_min" : 0.2111324448,
          "estimated_diameter_max" : 0.4721064988
        },
        "meters" : {
          "estimated_diameter_min" : 211.1324447897,
          "estimated_diameter_max" : 472.1064988055
        },
        "miles" : {
          "estimated_diameter_min" : 0.1311915784,
          "estimated_diameter_max" : 0.2933532873
        },
        "feet" : {
          "estimated_diameter_min" : 692.6917701639,
          "estimated_diameter_max" : 1548.9058855411
        }
      },
      "is_potentially_hazardous_asteroid" : false,
      "close_approach_data" : [ {
        "close_approach_date" : "2002-01-22",
        "epoch_date_close_approach" : 1011686400000,
        "relative_velocity" : {
          "kilometers_per_second" : "17.5395385817",
          "kilometers_per_hour" : "63142.3388941524",
          "miles_per_hour" : "39234.1938534249"
        },
        "miss_distance" : {
          "astronomical" : "0.172391637",
          "lunar" : "67.0603485107",
          "kilometers" : "25789422",
          "miles" : "16024804"
        },
        "orbiting_body" : "Earth"
      } ],
      "orbital_data" : {
        "orbit_id" : "31",
        "orbit_determination_date" : "2017-04-06 09:21:23",
        "orbit_uncertainty" : "0",
        "minimum_orbit_intersection" : ".090748",
        "jupiter_tisserand_invariant" : "6.554",
        "epoch_osculation" : "2458000.5",
        "eccentricity" : ".5464253273647408",
        "semi_major_axis" : ".8750159597970893",
        "inclination" : "27.75263660449618",
        "ascending_node_longitude" : "115.7699321917712",
        "orbital_period" : "298.966404488153",
        "perihelion_distance" : ".3968850775155919",
        "perihelion_argument" : "147.2420224399091",
        "aphelion_distance" : "1.353146842078587",
        "perihelion_time" : "2458056.263988608750",
        "mean_anomaly" : "292.851866973082",
        "mean_motion" : "1.204148675555502",
        "equinox" : "J2000"
      }
    }, {
      "links" : {
        "self" : "https://api.nasa.gov/neo/rest/v1/neo/3114020?api_key=t0TVs3DtDT2H8Oy2Zy8m2eVrNsAVKAexjcZXUckd"
      },
      "neo_reference_id" : "3114020",
      "name" : "(2002 CR11)",
      "nasa_jpl_url" : "http://ssd.jpl.nasa.gov/sbdb.cgi?sstr=3114020",
      "absolute_magnitude_h" : 20.2,
      "estimated_diameter" : {
        "kilometers" : {
          "estimated_diameter_min" : 0.2424124811,
          "estimated_diameter_max" : 0.5420507863
        },
        "meters" : {
          "estimated_diameter_min" : 242.4124811008,
          "estimated_diameter_max" : 542.0507863358
        },
        "miles" : {
          "estimated_diameter_min" : 0.1506280858,
          "estimated_diameter_max" : 0.3368146392
        },
        "feet" : {
          "estimated_diameter_min" : 795.3165644948,
          "estimated_diameter_max" : 1778.3819018419
        }
      },
      "is_potentially_hazardous_asteroid" : false,
      "close_approach_data" : [ {
        "close_approach_date" : "2002-01-22",
        "epoch_date_close_approach" : 1011686400000,
        "relative_velocity" : {
          "kilometers_per_second" : "11.8865609808",
          "kilometers_per_hour" : "42791.6195307972",
          "miles_per_hour" : "26589.0482579001"
        },
        "miss_distance" : {
          "astronomical" : "0.2459066805",
          "lunar" : "95.657699585",
          "kilometers" : "36787116",
          "miles" : "22858454"
        },
        "orbiting_body" : "Earth"
      } ],
      "orbital_data" : {
        "orbit_id" : "18",
        "orbit_determination_date" : "2017-04-06 09:15:29",
        "orbit_uncertainty" : "1",
        "minimum_orbit_intersection" : ".175909",
        "jupiter_tisserand_invariant" : "3.134",
        "epoch_osculation" : "2458000.5",
        "eccentricity" : ".5893962982263675",
        "semi_major_axis" : "2.491810121865178",
        "inclination" : "20.73281965400971",
        "ascending_node_longitude" : "324.8649200968495",
        "orbital_period" : "1436.715725399718",
        "perihelion_distance" : "1.023146460154849",
        "perihelion_argument" : "122.7305476281022",
        "aphelion_distance" : "3.960473783575508",
        "perihelion_time" : "2458011.728967381746",
        "mean_anomaly" : "357.1863409121494",
        "mean_motion" : ".250571489986192",
        "equinox" : "J2000"
      }
    } ]
  }
}